[{"OBJECT_NAME":"LEMUR-2-ANDIS","OBJECT_ID":"2017-042P","EPOCH":"2026-03-09T13:25:33.116448","MEAN_MOTION":15.30557934,"ECCENTRICITY":0.0009101,"INCLINATION":97.3659,"RA_OF_ASC_NODE":249.795,"ARG_OF_PERICENTER":4.3248,"MEAN_ANOMALY":355.807,"EPHEMERIS_TYPE":0,"CLASSIFICATION_TYPE":"U","NORAD_CAT_ID":42838,"ELEMENT_SET_NO":999,"REV_AT_EPOCH":47319,"BSTAR":0.00079875,"MEAN_MOTION_DOT":0.00023598,"MEAN_MOTION_DDOT":0},{"OBJECT_NAME":"STARLINK-32338","OBJECT_ID":"2024-183L","EPOCH":"2026-03-09T11:40:39.863136","MEAN_MOTION":15.30207913,"ECCENTRICITY":0.00011163,"INCLINATION":53.1604,"RA_OF_ASC_NODE":143.2176,"ARG_OF_PERICENTER":93.4347,"MEAN_ANOMALY":266.6781,"EPHEMERIS_TYPE":0,"CLASSIFICATION_TYPE":"U","NORAD_CAT_ID":61519,"ELEMENT_SET_NO":999,"REV_AT_EPOCH":7962,"BSTAR":-0.00016543302,"MEAN_MOTION_DOT":-5.256e-5,"MEAN_MOTION_DDOT":0}]
