LEMUR-2-ANDIS           
1 42838U 17042P   26068.55941107  .00023598  00000+0  79875-3 0  9998
2 42838  97.3659 249.7950 0009101   4.3248 355.8070 15.30557934473198
STARLINK-32338          
1 61519U 24183L   26068.48657249 -.00005256  00000+0 -16543-3 0  9998
2 61519  53.1604 143.2176 0001116  93.4347 266.6781 15.30207913 79627
